{
  "norad_id": 64843,
  "name": "STARLINK-34725",
  "history": [
    {
      "epoch": "2026-03-28T21:10:42.809952Z",
      "apogee_km": 550.9085924489564,
      "perigee_km": 548.0674348783523,
      "latitude_deg": -8.92756535079027e-05,
      "longitude_deg": 160.42782864833333,
      "height_km": 552.2130504959235,
      "semi_major_axis_km": 6927.625013663654,
      "eccentricity": 0.00020506,
      "inclination_deg": 97.6033,
      "raan_deg": 304.4027,
      "arg_perigee_deg": 76.2841,
      "mean_anomaly_deg": 283.8613,
      "mean_motion_rev_day": 15.05657544
    },
    {
      "epoch": "2026-03-29T03:33:30.915936Z",
      "apogee_km": 550.813406387063,
      "perigee_km": 548.1628970040247,
      "latitude_deg": -2.1514600982215474e-05,
      "longitude_deg": 64.72695958355861,
      "height_km": 552.2271145173106,
      "semi_major_axis_km": 6927.6251516955435,
      "eccentricity": 0.0001913,
      "inclination_deg": 97.6035,
      "raan_deg": 304.6643,
      "arg_perigee_deg": 75.8876,
      "mean_anomaly_deg": 284.2563,
      "mean_motion_rev_day": 15.05657499
    },
    {
      "epoch": "2026-03-30T01:53:18.959424Z",
      "apogee_km": 550.8215933858146,
      "perigee_km": 548.1649857223756,
      "latitude_deg": -2.0485203365012694e-05,
      "longitude_deg": 89.77671776083731,
      "height_km": 552.2984705519926,
      "semi_major_axis_km": 6927.630289554095,
      "eccentricity": 0.00019174,
      "inclination_deg": 97.6035,
      "raan_deg": 305.5813,
      "arg_perigee_deg": 78.8494,
      "mean_anomaly_deg": 281.2948,
      "mean_motion_rev_day": 15.05655824
    },
    {
      "epoch": "2026-03-30T13:03:12.953952Z",
      "apogee_km": 550.9662725159578,
      "perigee_km": 547.9998656023872,
      "latitude_deg": 4.649533461185058e-05,
      "longitude_deg": -77.69839798807357,
      "height_km": 552.2970073309316,
      "semi_major_axis_km": 6927.620069059172,
      "eccentricity": 0.0002141,
      "inclination_deg": 97.6033,
      "raan_deg": 306.0397,
      "arg_perigee_deg": 80.3856,
      "mean_anomaly_deg": 279.7613,
      "mean_motion_rev_day": 15.05659156
    },
    {
      "epoch": "2026-03-30T21:01:42.893760Z",
      "apogee_km": 550.9252643771015,
      "perigee_km": 548.0415731015974,
      "latitude_deg": 1.0263203503051633e-05,
      "longitude_deg": 162.67743708052825,
      "height_km": 552.2450158480859,
      "semi_major_axis_km": 6927.620418739349,
      "eccentricity": 0.00020813,
      "inclination_deg": 97.6039,
      "raan_deg": 306.3678,
      "arg_perigee_deg": 77.984,
      "mean_anomaly_deg": 282.162,
      "mean_motion_rev_day": 15.05659042
    },
    {
      "epoch": "2026-03-31T12:58:43.023072Z",
      "apogee_km": 550.9933990933787,
      "perigee_km": 547.9790516755493,
      "latitude_deg": 6.907909468852389e-06,
      "longitude_deg": -76.57374507081104,
      "height_km": 552.3139970237785,
      "semi_major_axis_km": 6927.623225384464,
      "eccentricity": 0.00021756,
      "inclination_deg": 97.6027,
      "raan_deg": 307.0222,
      "arg_perigee_deg": 81.0743,
      "mean_anomaly_deg": 279.073,
      "mean_motion_rev_day": 15.05658127
    },
    {
      "epoch": "2026-04-01T20:52:43.082112Z",
      "apogee_km": 551.1770920002591,
      "perigee_km": 547.8005671709188,
      "latitude_deg": 3.877876605215939e-05,
      "longitude_deg": 164.9268192934491,
      "height_km": 552.3340162776317,
      "semi_major_axis_km": 6927.625829585589,
      "eccentricity": 0.0002437,
      "inclination_deg": 97.6038,
      "raan_deg": 308.3331,
      "arg_perigee_deg": 82.6523,
      "mean_anomaly_deg": 277.4981,
      "mean_motion_rev_day": 15.05657278
    },
    {
      "epoch": "2026-04-02T20:48:12.946464Z",
      "apogee_km": 551.158764611062,
      "perigee_km": 547.7761539056955,
      "latitude_deg": -3.5141087984284336e-05,
      "longitude_deg": 166.0515317840646,
      "height_km": 552.2421391159957,
      "semi_major_axis_km": 6927.6044592583785,
      "eccentricity": 0.00024414,
      "inclination_deg": 97.6033,
      "raan_deg": 309.3148,
      "arg_perigee_deg": 80.2487,
      "mean_anomaly_deg": 279.9015,
      "mean_motion_rev_day": 15.05664245
    },
    {
      "epoch": "2026-04-03T14:20:54.871584Z",
      "apogee_km": 551.1042071651991,
      "perigee_km": 547.8787033564295,
      "latitude_deg": -1.449902180139894e-06,
      "longitude_deg": -97.12300733283249,
      "height_km": 552.2964439645173,
      "semi_major_axis_km": 6927.628455260814,
      "eccentricity": 0.0002328,
      "inclination_deg": 97.6025,
      "raan_deg": 310.0355,
      "arg_perigee_deg": 80.8536,
      "mean_anomaly_deg": 279.2954,
      "mean_motion_rev_day": 15.05656422
    },
    {
      "epoch": "2026-04-04T12:40:43.064544Z",
      "apogee_km": 551.2335410208179,
      "perigee_km": 547.7758165061123,
      "latitude_deg": 8.626818077120176e-06,
      "longitude_deg": -72.07357591766596,
      "height_km": 552.3286209198926,
      "semi_major_axis_km": 6927.641678763464,
      "eccentricity": 0.00024956,
      "inclination_deg": 97.6022,
      "raan_deg": 310.9528,
      "arg_perigee_deg": 82.1176,
      "mean_anomaly_deg": 278.0334,
      "mean_motion_rev_day": 15.05652111
    },
    {
      "epoch": "2026-04-05T14:11:55.491072Z",
      "apogee_km": 551.307904495352,
      "perigee_km": 547.7063608636545,
      "latitude_deg": 2.0727449125617983e-05,
      "longitude_deg": -94.8762302559452,
      "height_km": 552.3253243787549,
      "semi_major_axis_km": 6927.644132679503,
      "eccentricity": 0.00025994,
      "inclination_deg": 97.6017,
      "raan_deg": 312.0,
      "arg_perigee_deg": 82.2554,
      "mean_anomaly_deg": 277.8968,
      "mean_motion_rev_day": 15.05651311
    },
    {
      "epoch": "2026-04-05T20:34:43.662720Z",
      "apogee_km": 551.2650751143228,
      "perigee_km": 547.7901585425216,
      "latitude_deg": -2.1007020029421685e-05,
      "longitude_deg": 169.42354035970232,
      "height_km": 552.345838938151,
      "semi_major_axis_km": 6927.6646168284215,
      "eccentricity": 0.0002508,
      "inclination_deg": 97.6023,
      "raan_deg": 312.2625,
      "arg_perigee_deg": 81.9674,
      "mean_anomaly_deg": 278.1837,
      "mean_motion_rev_day": 15.05644633
    },
    {
      "epoch": "2026-04-06T04:33:13.714848Z",
      "apogee_km": 551.280691762825,
      "perigee_km": 547.7455119158558,
      "latitude_deg": -4.026051213789944e-05,
      "longitude_deg": 49.79800278241396,
      "height_km": 552.3381044694313,
      "semi_major_axis_km": 6927.65010183934,
      "eccentricity": 0.00025515,
      "inclination_deg": 97.6021,
      "raan_deg": 312.5897,
      "arg_perigee_deg": 82.3292,
      "mean_anomaly_deg": 277.8224,
      "mean_motion_rev_day": 15.05649365
    },
    {
      "epoch": "2026-04-07T14:02:55.413312Z",
      "apogee_km": 551.2483050909259,
      "perigee_km": 547.7283786547214,
      "latitude_deg": -2.787051198114295e-05,
      "longitude_deg": -92.6259335195798,
      "height_km": 552.27822481913,
      "semi_major_axis_km": 6927.625341872824,
      "eccentricity": 0.00025405,
      "inclination_deg": 97.6022,
      "raan_deg": 313.9651,
      "arg_perigee_deg": 81.1393,
      "mean_anomaly_deg": 279.0121,
      "mean_motion_rev_day": 15.05657437
    },
    {
      "epoch": "2026-04-07T20:25:43.261824Z",
      "apogee_km": 551.2219943782902,
      "perigee_km": 547.7457142335988,
      "latitude_deg": 5.3855304684463686e-05,
      "longitude_deg": 171.67467049131193,
      "height_km": 552.267574781613,
      "semi_major_axis_km": 6927.620854305945,
      "eccentricity": 0.0002509,
      "inclination_deg": 97.6024,
      "raan_deg": 314.2271,
      "arg_perigee_deg": 80.82,
      "mean_anomaly_deg": 279.3311,
      "mean_motion_rev_day": 15.056589
    },
    {
      "epoch": "2026-04-08T13:58:25.331232Z",
      "apogee_km": 551.230968257064,
      "perigee_km": 547.7803094586488,
      "latitude_deg": 2.7817531543232997e-05,
      "longitude_deg": -91.5019658251733,
      "height_km": 552.4004307869973,
      "semi_major_axis_km": 6927.642638857856,
      "eccentricity": 0.00024905,
      "inclination_deg": 97.6029,
      "raan_deg": 314.9463,
      "arg_perigee_deg": 84.4713,
      "mean_anomaly_deg": 275.6798,
      "mean_motion_rev_day": 15.05651798
    },
    {
      "epoch": "2026-04-09T12:18:13.333248Z",
      "apogee_km": 551.1425543612213,
      "perigee_km": 547.8740912979101,
      "latitude_deg": 3.3973719797032194e-05,
      "longitude_deg": -66.45153836021503,
      "height_km": 552.3565129182707,
      "semi_major_axis_km": 6927.645322829565,
      "eccentricity": 0.0002359,
      "inclination_deg": 97.6028,
      "raan_deg": 315.8638,
      "arg_perigee_deg": 82.5084,
      "mean_anomaly_deg": 277.6411,
      "mean_motion_rev_day": 15.05650923
    }
  ]
}